QIANFAN-89              
1 63175U 25046S   25251.92578504  .00000186  00000+0  26884-3 0  9999
2 63175  88.9852 329.8277 0017438  46.8981 313.3626 13.50976633 34601
QIANFAN-90              
1 63176U 25046T   25251.88053495  .00000192  00000+0  27855-3 0  9998
2 63176  88.9853 329.8046 0014350  46.8701 313.3648 13.50975735 34614
